{"fetched_at":"2026-03-29T16:36:15Z","count":15609,"tles":[{"name":"STARLINK-30892","line1":"1 58366U 23177R   26087.81540320  .00001408  00000+0  62171-4 0  9997","line2":"2 58366  43.0050 242.4866 0002159 263.7084  96.3522 15.26744196131165","category":"Starlink"}]}